STARLINK-1541           
1 46052U 20055AB  26068.54276674  .00003474  00000+0  12937-3 0  9994
2 46052  53.1593 114.5667 0001223  89.1239 270.9902 15.30198741309027
HAWK-2B                 
1 47508U 21006CZ  26068.67629241  .00009474  00000+0  29651-3 0  9991
2 47508  97.2334 114.1140 0007102 185.9063 174.2098 15.33301353284246
